FENGYUN 1C DEB          
1 32324U 99025CXR 26072.24833156  .00001036  00000+0  61478-3 0  9996
2 32324  99.5309 184.2160 0051431 133.7535 226.7907 14.09344394652731
FENGYUN 1C DEB          
1 32326U 99025CXT 26067.01328417  .00000973  00000+0  69100-3 0  9995
2 32326  98.4947 351.5541 0384759 271.8002  83.9128 13.69495104643498
FENGYUN 1C DEB          
1 32331U 99025CXY 26072.16415191  .00037325  00000+0  48743-2 0  9999
2 32331  99.1779  56.9188 0011649 200.9876 159.0856 14.80315878619528
FENGYUN 1C DEB          
1 32332U 99025CXZ 26072.87527311  .00002781  00000+0  14231-2 0  9999
2 32332  99.1281 131.4735 0282881  63.4148 299.5707 13.97689857943091
FENGYUN 1C DEB          
1 32334U 99025CYB 26072.12913524  .00000376  00000+0  27206-3 0  9999
2 32334  99.2385 132.7531 0068603  33.5338 327.0141 14.01781779952068
FENGYUN 1C DEB          
1 32340U 99025CYH 26074.29670382  .00016413  00000+0  22622-2 0  9993
2 32340  98.9776  95.3375 0032167   6.1084 354.0509 14.77941992985629
FENGYUN 1C DEB          
1 32342U 99025CYK 26073.94446224  .00000178  00000+0  11722-3 0  9993
2 32342  98.6707  84.7119 0008837  81.9733 346.4497 14.13442389950202
FENGYUN 1C DEB          
1 32343U 99025CYL 26073.19098447  .00000700  00000+0  31179-3 0  9990
2 32343  98.6216  62.5702 0150359 223.1493 135.7821 14.20052739660112
FENGYUN 1C DEB          
1 32350U 99025CYT 26073.39485053  .00006148  00000+0  92932-3 0  9999
2 32350  98.2143 121.5062 0264388  15.9791 344.9548 14.53674039988589
FENGYUN 1C DEB          
1 32352U 99025CYV 26048.98501414  .00001242  00000+0  36457-3 0  9998
2 32352  98.7782 335.8483 0120813 332.0770  27.3969 14.41599575662380
FENGYUN 1C DEB          
1 32353U 99025CYW 26060.71251977  .00003615  00000+0  21453-2 0  9995
2 32353  98.9254 240.8109 0122478 337.4550  22.1263 14.04481899643029
FENGYUN 1C DEB          
1 32356U 99025CYZ 26073.66257249  .00003633  00000+0  21922-2 0  9995
2 32356 102.4962 334.9226 0119988 153.0297 207.7160 14.04120207696776
FENGYUN 1C DEB          
1 32357U 99025CZA 26073.33532588  .00003789  00000+0  19056-2 0  9999
2 32357  98.8549 110.6288 0485680 305.0169 112.0817 13.69586089680410
FENGYUN 1C DEB          
1 32360U 99025CZD 26074.18288791  .00004706  00000+0  25946-2 0  9996
2 32360  98.1100 245.9082 0228433  46.6561 315.3395 13.99536085661095
FENGYUN 1C DEB          
1 32361U 99025CZE 26072.39799053  .00007076  00000+0  17134-2 0  9999
2 32361  98.8499 141.2181 0046763 130.4767 230.0518 14.52667427976607
FENGYUN 1C DEB          
1 32362U 99025CZF 26074.17230096  .00004014  00000+0  38309-2 0  9991
2 32362  99.8460  51.8142 0274423  49.9396 312.5470 13.65702549923915
