[{"OBJECT_NAME":"FENGYUN 1C DEB","OBJECT_ID":"1999-025CXR","EPOCH":"2026-03-13T05:57:35.846784","MEAN_MOTION":14.09344394,"ECCENTRICITY":0.00514315,"INCLINATION":99.5309,"RA_OF_ASC_NODE":184.216,"ARG_OF_PERICENTER":133.7535,"MEAN_ANOMALY":226.7907,"EPHEMERIS_TYPE":0,"CLASSIFICATION_TYPE":"U","NORAD_CAT_ID":32324,"ELEMENT_SET_NO":999,"REV_AT_EPOCH":65273,"BSTAR":0.00061477929,"MEAN_MOTION_DOT":1.036e-5,"MEAN_MOTION_DDOT":0},{"OBJECT_NAME":"FENGYUN 1C DEB","OBJECT_ID":"1999-025CXT","EPOCH":"2026-03-08T00:19:07.752288","MEAN_MOTION":13.69495104,"ECCENTRICITY":0.03847597,"INCLINATION":98.4947,"RA_OF_ASC_NODE":351.5541,"ARG_OF_PERICENTER":271.8002,"MEAN_ANOMALY":83.9128,"EPHEMERIS_TYPE":0,"CLASSIFICATION_TYPE":"U","NORAD_CAT_ID":32326,"ELEMENT_SET_NO":999,"REV_AT_EPOCH":64349,"BSTAR":0.00069100271,"MEAN_MOTION_DOT":9.73e-6,"MEAN_MOTION_DDOT":0},{"OBJECT_NAME":"FENGYUN 1C DEB","OBJECT_ID":"1999-025CXY","EPOCH":"2026-03-13T03:56:22.725024","MEAN_MOTION":14.80315878,"ECCENTRICITY":0.00116493,"INCLINATION":99.1779,"RA_OF_ASC_NODE":56.9188,"ARG_OF_PERICENTER":200.9876,"MEAN_ANOMALY":159.0856,"EPHEMERIS_TYPE":0,"CLASSIFICATION_TYPE":"U","NORAD_CAT_ID":32331,"ELEMENT_SET_NO":999,"REV_AT_EPOCH":61952,"BSTAR":0.0048743191,"MEAN_MOTION_DOT":0.00037325,"MEAN_MOTION_DDOT":0},{"OBJECT_NAME":"FENGYUN 1C DEB","OBJECT_ID":"1999-025CXZ","EPOCH":"2026-03-13T21:00:23.596704","MEAN_MOTION":13.97689857,"ECCENTRICITY":0.02828813,"INCLINATION":99.1281,"RA_OF_ASC_NODE":131.4735,"ARG_OF_PERICENTER":63.4148,"MEAN_ANOMALY":299.5707,"EPHEMERIS_TYPE":0,"CLASSIFICATION_TYPE":"U","NORAD_CAT_ID":32332,"ELEMENT_SET_NO":999,"REV_AT_EPOCH":94309,"BSTAR":0.0014230671,"MEAN_MOTION_DOT":2.781e-5,"MEAN_MOTION_DDOT":0},{"OBJECT_NAME":"FENGYUN 1C DEB","OBJECT_ID":"1999-025CYB","EPOCH":"2026-03-13T03:05:57.284736","MEAN_MOTION":14.01781779,"ECCENTRICITY":0.00686038,"INCLINATION":99.2385,"RA_OF_ASC_NODE":132.7531,"ARG_OF_PERICENTER":33.5338,"MEAN_ANOMALY":327.0141,"EPHEMERIS_TYPE":0,"CLASSIFICATION_TYPE":"U","NORAD_CAT_ID":32334,"ELEMENT_SET_NO":999,"REV_AT_EPOCH":95206,"BSTAR":0.00027205665,"MEAN_MOTION_DOT":3.76e-6,"MEAN_MOTION_DDOT":0},{"OBJECT_NAME":"FENGYUN 1C DEB","OBJECT_ID":"1999-025CYH","EPOCH":"2026-03-15T07:07:15.210048","MEAN_MOTION":14.77941992,"ECCENTRICITY":0.00321674,"INCLINATION":98.9776,"RA_OF_ASC_NODE":95.3375,"ARG_OF_PERICENTER":6.1084,"MEAN_ANOMALY":354.0509,"EPHEMERIS_TYPE":0,"CLASSIFICATION_TYPE":"U","NORAD_CAT_ID":32340,"ELEMENT_SET_NO":999,"REV_AT_EPOCH":98562,"BSTAR":0.0022621746,"MEAN_MOTION_DOT":0.00016413,"MEAN_MOTION_DDOT":0},{"OBJECT_NAME":"FENGYUN 1C DEB","OBJECT_ID":"1999-025CYK","EPOCH":"2026-03-14T22:40:01.537536","MEAN_MOTION":14.13442389,"ECCENTRICITY":0.00088371,"INCLINATION":98.6707,"RA_OF_ASC_NODE":84.7119,"ARG_OF_PERICENTER":81.9733,"MEAN_ANOMALY":346.4497,"EPHEMERIS_TYPE":0,"CLASSIFICATION_TYPE":"U","NORAD_CAT_ID":32342,"ELEMENT_SET_NO":999,"REV_AT_EPOCH":95020,"BSTAR":0.00011722151,"MEAN_MOTION_DOT":1.78e-6,"MEAN_MOTION_DDOT":0},{"OBJECT_NAME":"FENGYUN 1C DEB","OBJECT_ID":"1999-025CYL","EPOCH":"2026-03-14T04:35:01.058208","MEAN_MOTION":14.20052739,"ECCENTRICITY":0.01503593,"INCLINATION":98.6216,"RA_OF_ASC_NODE":62.5702,"ARG_OF_PERICENTER":223.1493,"MEAN_ANOMALY":135.7821,"EPHEMERIS_TYPE":0,"CLASSIFICATION_TYPE":"U","NORAD_CAT_ID":32343,"ELEMENT_SET_NO":999,"REV_AT_EPOCH":66011,"BSTAR":0.00031178787,"MEAN_MOTION_DOT":7.0e-6,"MEAN_MOTION_DDOT":0},{"OBJECT_NAME":"FENGYUN 1C DEB","OBJECT_ID":"1999-025CYT","EPOCH":"2026-03-14T09:28:35.085792","MEAN_MOTION":14.53674039,"ECCENTRICITY":0.02643887,"INCLINATION":98.2143,"RA_OF_ASC_NODE":121.5062,"ARG_OF_PERICENTER":15.9791,"MEAN_ANOMALY":344.9548,"EPHEMERIS_TYPE":0,"CLASSIFICATION_TYPE":"U","NORAD_CAT_ID":32350,"ELEMENT_SET_NO":999,"REV_AT_EPOCH":98858,"BSTAR":0.00092931964,"MEAN_MOTION_DOT":6.148e-5,"MEAN_MOTION_DDOT":0},{"OBJECT_NAME":"FENGYUN 1C DEB","OBJECT_ID":"1999-025CYV","EPOCH":"2026-02-17T23:38:25.221696","MEAN_MOTION":14.41599575,"ECCENTRICITY":0.01208132,"INCLINATION":98.7782,"RA_OF_ASC_NODE":335.8483,"ARG_OF_PERICENTER":332.077,"MEAN_ANOMALY":27.3969,"EPHEMERIS_TYPE":0,"CLASSIFICATION_TYPE":"U","NORAD_CAT_ID":32352,"ELEMENT_SET_NO":999,"REV_AT_EPOCH":66238,"BSTAR":0.0003645674,"MEAN_MOTION_DOT":1.242e-5,"MEAN_MOTION_DDOT":0},{"OBJECT_NAME":"FENGYUN 1C DEB","OBJECT_ID":"1999-025CYW","EPOCH":"2026-03-01T17:06:01.708128","MEAN_MOTION":14.04481899,"ECCENTRICITY":0.01224783,"INCLINATION":98.9254,"RA_OF_ASC_NODE":240.8109,"ARG_OF_PERICENTER":337.455,"MEAN_ANOMALY":22.1263,"EPHEMERIS_TYPE":0,"CLASSIFICATION_TYPE":"U","NORAD_CAT_ID":32353,"ELEMENT_SET_NO":999,"REV_AT_EPOCH":64302,"BSTAR":0.0021453188,"MEAN_MOTION_DOT":3.615e-5,"MEAN_MOTION_DDOT":0},{"OBJECT_NAME":"FENGYUN 1C DEB","OBJECT_ID":"1999-025CYZ","EPOCH":"2026-03-14T15:54:06.263136","MEAN_MOTION":14.04120207,"ECCENTRICITY":0.01199889,"INCLINATION":102.4962,"RA_OF_ASC_NODE":334.9226,"ARG_OF_PERICENTER":153.0297,"MEAN_ANOMALY":207.716,"EPHEMERIS_TYPE":0,"CLASSIFICATION_TYPE":"U","NORAD_CAT_ID":32356,"ELEMENT_SET_NO":999,"REV_AT_EPOCH":69677,"BSTAR":0.0021921826,"MEAN_MOTION_DOT":3.633e-5,"MEAN_MOTION_DDOT":0},{"OBJECT_NAME":"FENGYUN 1C DEB","OBJECT_ID":"1999-025CZA","EPOCH":"2026-03-14T08:02:52.156032","MEAN_MOTION":13.69586089,"ECCENTRICITY":0.04856806,"INCLINATION":98.8549,"RA_OF_ASC_NODE":110.6288,"ARG_OF_PERICENTER":305.0169,"MEAN_ANOMALY":112.0817,"EPHEMERIS_TYPE":0,"CLASSIFICATION_TYPE":"U","NORAD_CAT_ID":32357,"ELEMENT_SET_NO":999,"REV_AT_EPOCH":68041,"BSTAR":0.0019056209,"MEAN_MOTION_DOT":3.789e-5,"MEAN_MOTION_DDOT":0},{"OBJECT_NAME":"FENGYUN 1C DEB","OBJECT_ID":"1999-025CZD","EPOCH":"2026-03-15T04:23:21.515424","MEAN_MOTION":13.99536085,"ECCENTRICITY":0.02284339,"INCLINATION":98.11,"RA_OF_ASC_NODE":245.9082,"ARG_OF_PERICENTER":46.6561,"MEAN_ANOMALY":315.3395,"EPHEMERIS_TYPE":0,"CLASSIFICATION_TYPE":"U","NORAD_CAT_ID":32360,"ELEMENT_SET_NO":999,"REV_AT_EPOCH":66109,"BSTAR":0.0025946243,"MEAN_MOTION_DOT":4.706e-5,"MEAN_MOTION_DDOT":0},{"OBJECT_NAME":"FENGYUN 1C DEB","OBJECT_ID":"1999-025CZE","EPOCH":"2026-03-13T09:33:06.381792","MEAN_MOTION":14.52667427,"ECCENTRICITY":0.0046763,"INCLINATION":98.8499,"RA_OF_ASC_NODE":141.2181,"ARG_OF_PERICENTER":130.4767,"MEAN_ANOMALY":230.0518,"EPHEMERIS_TYPE":0,"CLASSIFICATION_TYPE":"U","NORAD_CAT_ID":32361,"ELEMENT_SET_NO":999,"REV_AT_EPOCH":97660,"BSTAR":0.001713378,"MEAN_MOTION_DOT":7.076e-5,"MEAN_MOTION_DDOT":0},{"OBJECT_NAME":"FENGYUN 1C DEB","OBJECT_ID":"1999-025CZF","EPOCH":"2026-03-15T04:08:06.802944","MEAN_MOTION":13.65702549,"ECCENTRICITY":0.02744235,"INCLINATION":99.846,"RA_OF_ASC_NODE":51.8142,"ARG_OF_PERICENTER":49.9396,"MEAN_ANOMALY":312.547,"EPHEMERIS_TYPE":0,"CLASSIFICATION_TYPE":"U","NORAD_CAT_ID":32362,"ELEMENT_SET_NO":999,"REV_AT_EPOCH":92391,"BSTAR":0.0038308679,"MEAN_MOTION_DOT":4.014e-5,"MEAN_MOTION_DDOT":0}]
